STARLINK-2641_new
1 18369C 21038S   21326.17030762  .00007095  00000-0  47546-3 0  3268
2 18369  53.0515 192.9700 0002021  70.0936 153.8498 15.06386429    12
STARLINK-2641_old
1 28369C 21038S   21325.09689039 -.00016181  00000-0 -10842-2 0  3250
2 28369  53.0518 197.7889 0002067  68.4669  91.0778 15.06412983    19
